{
  "type": "FeatureCollection",
  "features": [
    {
      "type": "Feature",
      "properties": {
        "norad_id": 34350,
        "name": "IRIDIUM 33 DEB",
        "group": "iridium-33-debris",
        "lat": 46.90173716481234,
        "lon": -179.3914541446191,
        "alt_km": 721.3654220593153,
        "timestamp": "2025-12-08T17:43:05.321621+00:00",
        "meta_object_name": "IRIDIUM 33 DEB",
        "meta_object_id": "1997-051ES",
        "meta_epoch": "2025-12-08T02:24:05.432832",
        "meta_mean_motion": 14.45370234,
        "meta_eccentricity": 0.00223505,
        "meta_inclination": 86.3279,
        "meta_ra_of_asc_node": 4.8207,
        "meta_arg_of_pericenter": 149.7301,
        "meta_mean_anomaly": 264.616,
        "meta_ephemeris_type": 0,
        "meta_classification_type": "U",
        "meta_norad_cat_id": 34350,
        "meta_element_set_no": 999,
        "meta_rev_at_epoch": 88226,
        "meta_bstar": 0.00049103911,
        "meta_mean_motion_dot": 1.751e-05,
        "meta_mean_motion_ddot": 0,
        "tle_line1": "1 34350U 97051ES  25342.10006288  .00001751  00000+0  49104-3 0  9992",
        "tle_line2": "2 34350  86.3279   4.8207 0022350 149.7301 264.6160 14.45370234882264"
      },
      "geometry": {
        "type": "Point",
        "coordinates": [
          -179.3914541446191,
          46.90173716481234
        ]
      }
    },
    {
      "type": "Feature",
      "properties": {
        "norad_id": 34366,
        "name": "IRIDIUM 33 DEB",
        "group": "iridium-33-debris",
        "lat": -23.58258061628036,
        "lon": 49.46542936854086,
        "alt_km": 733.8467673959976,
        "timestamp": "2025-12-08T17:43:05.321632+00:00",
        "meta_object_name": "IRIDIUM 33 DEB",
        "meta_object_id": "1997-051FJ",
        "meta_epoch": "2025-12-08T06:35:46.010976",
        "meta_mean_motion": 14.53996874,
        "meta_eccentricity": 0.00221505,
        "meta_inclination": 86.3695,
        "meta_ra_of_asc_node": 51.2551,
        "meta_arg_of_pericenter": 153.8237,
        "meta_mean_anomaly": 278.5233,
        "meta_ephemeris_type": 0,
        "meta_classification_type": "U",
        "meta_norad_cat_id": 34366,
        "meta_element_set_no": 999,
        "meta_rev_at_epoch": 88117,
        "meta_bstar": 0.0015254916,
        "meta_mean_motion_dot": 6.47e-05,
        "meta_mean_motion_ddot": 0,
        "tle_line1": "1 34366U 97051FJ  25342.27483809  .00006470  00000+0  15255-2 0  9997",
        "tle_line2": "2 34366  86.3695  51.2551 0022150 153.8237 278.5233 14.53996874881170"
      },
      "geometry": {
        "type": "Point",
        "coordinates": [
          49.46542936854086,
          -23.58258061628036
        ]
      }
    },
    {
      "type": "Feature",
      "properties": {
        "norad_id": 34375,
        "name": "IRIDIUM 33 DEB",
        "group": "iridium-33-debris",
        "lat": 48.73357135057896,
        "lon": -171.61332405818493,
        "alt_km": 827.583692625607,
        "timestamp": "2025-12-08T17:43:05.321642+00:00",
        "meta_object_name": "IRIDIUM 33 DEB",
        "meta_object_id": "1997-051FT",
        "meta_epoch": "2025-12-08T08:10:03.316224",
        "meta_mean_motion": 14.17980902,
        "meta_eccentricity": 0.01029885,
        "meta_inclination": 86.4327,
        "meta_ra_of_asc_node": 184.4704,
        "meta_arg_of_pericenter": 140.568,
        "meta_mean_anomaly": 39.4332,
        "meta_ephemeris_type": 0,
        "meta_classification_type": "U",
        "meta_norad_cat_id": 34375,
        "meta_element_set_no": 999,
        "meta_rev_at_epoch": 86649,
        "meta_bstar": 0.00070210736,
        "meta_mean_motion_dot": 1.533e-05,
        "meta_mean_motion_ddot": 0,
        "tle_line1": "1 34375U 97051FT  25342.34031616  .00001533  00000+0  70211-3 0  9999",
        "tle_line2": "2 34375  86.4327 184.4704 0102988 140.5680  39.4332 14.17980902866492"
      },
      "geometry": {
        "type": "Point",
        "coordinates": [
          -171.61332405818493,
          48.73357135057896
        ]
      }
    },
    {
      "type": "Feature",
      "properties": {
        "norad_id": 34376,
        "name": "IRIDIUM 33 DEB",
        "group": "iridium-33-debris",
        "lat": 38.16339404404931,
        "lon": -174.57777760638626,
        "alt_km": 667.7268763072634,
        "timestamp": "2025-12-08T17:43:05.321653+00:00",
        "meta_object_name": "IRIDIUM 33 DEB",
        "meta_object_id": "1997-051FU",
        "meta_epoch": "2025-12-08T02:17:33.169056",
        "meta_mean_motion": 14.62466554,
        "meta_eccentricity": 0.00266365,
        "meta_inclination": 86.2983,
        "meta_ra_of_asc_node": 8.6274,
        "meta_arg_of_pericenter": 182.3953,
        "meta_mean_anomaly": 177.7135,
        "meta_ephemeris_type": 0,
        "meta_classification_type": "U",
        "meta_norad_cat_id": 34376,
        "meta_element_set_no": 999,
        "meta_rev_at_epoch": 87939,
        "meta_bstar": 0.00182497,
        "meta_mean_motion_dot": 9.315e-05,
        "meta_mean_motion_ddot": 0,
        "tle_line1": "1 34376U 97051FU  25342.09552279  .00009315  00000+0  18250-2 0  9995",
        "tle_line2": "2 34376  86.2983   8.6274 0026636 182.3953 177.7135 14.62466554879392"
      },
      "geometry": {
        "type": "Point",
        "coordinates": [
          -174.57777760638626,
          38.16339404404931
        ]
      }
    },
    {
      "type": "Feature",
      "properties": {
        "norad_id": 34486,
        "name": "IRIDIUM 33 DEB",
        "group": "iridium-33-debris",
        "lat": -61.86920605103962,
        "lon": -159.35258038973038,
        "alt_km": 592.2454710157735,
        "timestamp": "2025-12-08T17:43:05.321665+00:00",
        "meta_object_name": "IRIDIUM 33 DEB",
        "meta_object_id": "1997-051GB",
        "meta_epoch": "2025-12-08T02:25:43.952160",
        "meta_mean_motion": 14.95478287,
        "meta_eccentricity": 0.00133393,
        "meta_inclination": 86.3928,
        "meta_ra_of_asc_node": 14.165,
        "meta_arg_of_pericenter": 127.4344,
        "meta_mean_anomaly": 286.985,
        "meta_ephemeris_type": 0,
        "meta_classification_type": "U",
        "meta_norad_cat_id": 34486,
        "meta_element_set_no": 999,
        "meta_rev_at_epoch": 88917,
        "meta_bstar": 0.002502216,
        "meta_mean_motion_dot": 0.00027835,
        "meta_mean_motion_ddot": 0,
        "tle_line1": "1 34486U 97051GB  25342.10120315  .00027835  00000+0  25022-2 0  9993",
        "tle_line2": "2 34486  86.3928  14.1650 0013339 127.4344 286.9850 14.95478287889170"
      },
      "geometry": {
        "type": "Point",
        "coordinates": [
          -159.35258038973038,
          -61.86920605103962
        ]
      }
    },
    {
      "type": "Feature",
      "properties": {
        "norad_id": 34487,
        "name": "IRIDIUM 33 DEB",
        "group": "iridium-33-debris",
        "lat": -68.03098684971961,
        "lon": 4.979898549552914,
        "alt_km": 775.4210817863895,
        "timestamp": "2025-12-08T17:43:05.321676+00:00",
        "meta_object_name": "IRIDIUM 33 DEB",
        "meta_object_id": "1997-051GC",
        "meta_epoch": "2025-12-08T08:07:14.868192",
        "meta_mean_motion": 14.43208344,
        "meta_eccentricity": 0.00324214,
        "meta_inclination": 86.3438,
        "meta_ra_of_asc_node": 14.2722,
        "meta_arg_of_pericenter": 142.2384,
        "meta_mean_anomaly": 232.9824,
        "meta_ephemeris_type": 0,
        "meta_classification_type": "U",
        "meta_norad_cat_id": 34487,
        "meta_element_set_no": 999,
        "meta_rev_at_epoch": 88185,
        "meta_bstar": 0.00035758899,
        "meta_mean_motion_dot": 1.229e-05,
        "meta_mean_motion_ddot": 0,
        "tle_line1": "1 34487U 97051GC  25342.33836653  .00001229  00000+0  35759-3 0  9996",
        "tle_line2": "2 34487  86.3438  14.2722 0032421 142.2384 232.9824 14.43208344881857"
      },
      "geometry": {
        "type": "Point",
        "coordinates": [
          4.979898549552914,
          -68.03098684971961
        ]
      }
    },
    {
      "type": "Feature",
      "properties": {
        "norad_id": 34488,
        "name": "IRIDIUM 33 DEB",
        "group": "iridium-33-debris",
        "lat": 68.97557160378291,
        "lon": 118.16478590100253,
        "alt_km": 469.6107509241383,
        "timestamp": "2025-12-08T17:43:05.321687+00:00",
        "meta_object_name": "IRIDIUM 33 DEB",
        "meta_object_id": "1997-051GD",
        "meta_epoch": "2025-12-08T04:39:41.324256",
        "meta_mean_motion": 15.2778749,
        "meta_eccentricity": 0.00145734,
        "meta_inclination": 86.3245,
        "meta_ra_of_asc_node": 308.0615,
        "meta_arg_of_pericenter": 57.8431,
        "meta_mean_anomaly": 302.4228,
        "meta_ephemeris_type": 0,
        "meta_classification_type": "U",
        "meta_norad_cat_id": 34488,
        "meta_element_set_no": 999,
        "meta_rev_at_epoch": 89170,
        "meta_bstar": 0.005400302,
        "meta_mean_motion_dot": 0.00149623,
        "meta_mean_motion_ddot": 0,
        "tle_line1": "1 34488U 97051GD  25342.19422829  .00149623  00000+0  54003-2 0  9990",
        "tle_line2": "2 34488  86.3245 308.0615 0014573  57.8431 302.4228 15.27787490891704"
      },
      "geometry": {
        "type": "Point",
        "coordinates": [
          118.16478590100253,
          68.97557160378291
        ]
      }
    }
  ]
}